<?xml version="1.0" encoding="UTF-8"?>
<ndm xmlns:xsi="http://www.w3.org/2001/XMLSchema-instance" xsi:noNamespaceSchemaLocation="https://sanaregistry.org/r/ndmxml_unqualified/ndmxml-2.0.0-master-2.0.xsd">
<omm id="CCSDS_OMM_VERS" version="2.0">
<header><CREATION_DATE/><ORIGINATOR/></header><body><segment><metadata><OBJECT_NAME>KUIPER-00044</OBJECT_NAME><OBJECT_ID>2025-134F</OBJECT_ID><CENTER_NAME>EARTH</CENTER_NAME><REF_FRAME>TEME</REF_FRAME><TIME_SYSTEM>UTC</TIME_SYSTEM><MEAN_ELEMENT_THEORY>SGP4</MEAN_ELEMENT_THEORY></metadata><data><meanElements><EPOCH>2025-08-11T22:00:01.999584</EPOCH><MEAN_MOTION>15.06166981</MEAN_MOTION><ECCENTRICITY>.0011996</ECCENTRICITY><INCLINATION>51.8801</INCLINATION><RA_OF_ASC_NODE>96.0157</RA_OF_ASC_NODE><ARG_OF_PERICENTER>295.2032</ARG_OF_PERICENTER><MEAN_ANOMALY>115.5954</MEAN_ANOMALY></meanElements><tleParameters><EPHEMERIS_TYPE>0</EPHEMERIS_TYPE><CLASSIFICATION_TYPE>U</CLASSIFICATION_TYPE><NORAD_CAT_ID>64505</NORAD_CAT_ID><ELEMENT_SET_NO>999</ELEMENT_SET_NO><REV_AT_EPOCH>831</REV_AT_EPOCH><BSTAR>-.50158E-1</BSTAR><MEAN_MOTION_DOT>-.694828E-2</MEAN_MOTION_DOT><MEAN_MOTION_DDOT>0</MEAN_MOTION_DDOT></tleParameters></data></segment></body></omm>
<omm id="CCSDS_OMM_VERS" version="2.0">
<header><CREATION_DATE/><ORIGINATOR/></header><body><segment><metadata><OBJECT_NAME>KUIPER-00046</OBJECT_NAME><OBJECT_ID>2025-134G</OBJECT_ID><CENTER_NAME>EARTH</CENTER_NAME><REF_FRAME>TEME</REF_FRAME><TIME_SYSTEM>UTC</TIME_SYSTEM><MEAN_ELEMENT_THEORY>SGP4</MEAN_ELEMENT_THEORY></metadata><data><meanElements><EPOCH>2025-08-11T20:25:11.913312</EPOCH><MEAN_MOTION>15.15814240</MEAN_MOTION><ECCENTRICITY>.0010012</ECCENTRICITY><INCLINATION>51.8750</INCLINATION><RA_OF_ASC_NODE>94.9717</RA_OF_ASC_NODE><ARG_OF_PERICENTER>291.5153</ARG_OF_PERICENTER><MEAN_ANOMALY>68.4757</MEAN_ANOMALY></meanElements><tleParameters><EPHEMERIS_TYPE>0</EPHEMERIS_TYPE><CLASSIFICATION_TYPE>U</CLASSIFICATION_TYPE><NORAD_CAT_ID>64506</NORAD_CAT_ID><ELEMENT_SET_NO>999</ELEMENT_SET_NO><REV_AT_EPOCH>834</REV_AT_EPOCH><BSTAR>-.44094E-2</BSTAR><MEAN_MOTION_DOT>-.84762E-3</MEAN_MOTION_DOT><MEAN_MOTION_DDOT>0</MEAN_MOTION_DDOT></tleParameters></data></segment></body></omm>
<omm id="CCSDS_OMM_VERS" version="2.0">
<header><CREATION_DATE/><ORIGINATOR/></header><body><segment><metadata><OBJECT_NAME>KUIPER-00047</OBJECT_NAME><OBJECT_ID>2025-134H</OBJECT_ID><CENTER_NAME>EARTH</CENTER_NAME><REF_FRAME>TEME</REF_FRAME><TIME_SYSTEM>UTC</TIME_SYSTEM><MEAN_ELEMENT_THEORY>SGP4</MEAN_ELEMENT_THEORY></metadata><data><meanElements><EPOCH>2025-08-11T19:53:38.116032</EPOCH><MEAN_MOTION>15.34654937</MEAN_MOTION><ECCENTRICITY>.0009665</ECCENTRICITY><INCLINATION>51.8631</INCLINATION><RA_OF_ASC_NODE>93.3292</RA_OF_ASC_NODE><ARG_OF_PERICENTER>304.2266</ARG_OF_PERICENTER><MEAN_ANOMALY>55.7804</MEAN_ANOMALY></meanElements><tleParameters><EPHEMERIS_TYPE>0</EPHEMERIS_TYPE><CLASSIFICATION_TYPE>U</CLASSIFICATION_TYPE><NORAD_CAT_ID>64507</NORAD_CAT_ID><ELEMENT_SET_NO>999</ELEMENT_SET_NO><REV_AT_EPOCH>836</REV_AT_EPOCH><BSTAR>.81364E-3</BSTAR><MEAN_MOTION_DOT>.27498E-3</MEAN_MOTION_DOT><MEAN_MOTION_DDOT>0</MEAN_MOTION_DDOT></tleParameters></data></segment></body></omm>
<omm id="CCSDS_OMM_VERS" version="2.0">
<header><CREATION_DATE/><ORIGINATOR/></header><body><segment><metadata><OBJECT_NAME>KUIPER-00048</OBJECT_NAME><OBJECT_ID>2025-134J</OBJECT_ID><CENTER_NAME>EARTH</CENTER_NAME><REF_FRAME>TEME</REF_FRAME><TIME_SYSTEM>UTC</TIME_SYSTEM><MEAN_ELEMENT_THEORY>SGP4</MEAN_ELEMENT_THEORY></metadata><data><meanElements><EPOCH>2025-08-11T08:59:45.940128</EPOCH><MEAN_MOTION>15.36720841</MEAN_MOTION><ECCENTRICITY>.0002992</ECCENTRICITY><INCLINATION>51.8751</INCLINATION><RA_OF_ASC_NODE>94.8604</RA_OF_ASC_NODE><ARG_OF_PERICENTER>275.0665</ARG_OF_PERICENTER><MEAN_ANOMALY>84.9980</MEAN_ANOMALY></meanElements><tleParameters><EPHEMERIS_TYPE>0</EPHEMERIS_TYPE><CLASSIFICATION_TYPE>U</CLASSIFICATION_TYPE><NORAD_CAT_ID>64508</NORAD_CAT_ID><ELEMENT_SET_NO>999</ELEMENT_SET_NO><REV_AT_EPOCH>876</REV_AT_EPOCH><BSTAR>.94318E-3</BSTAR><MEAN_MOTION_DOT>.34129E-3</MEAN_MOTION_DOT><MEAN_MOTION_DDOT>0</MEAN_MOTION_DDOT></tleParameters></data></segment></body></omm>
<omm id="CCSDS_OMM_VERS" version="2.0">
<header><CREATION_DATE/><ORIGINATOR/></header><body><segment><metadata><OBJECT_NAME>KUIPER-00049</OBJECT_NAME><OBJECT_ID>2025-134K</OBJECT_ID><CENTER_NAME>EARTH</CENTER_NAME><REF_FRAME>TEME</REF_FRAME><TIME_SYSTEM>UTC</TIME_SYSTEM><MEAN_ELEMENT_THEORY>SGP4</MEAN_ELEMENT_THEORY></metadata><data><meanElements><EPOCH>2025-08-11T20:36:51.908832</EPOCH><MEAN_MOTION>15.35893269</MEAN_MOTION><ECCENTRICITY>.0006996</ECCENTRICITY><INCLINATION>51.8703</INCLINATION><RA_OF_ASC_NODE>92.8306</RA_OF_ASC_NODE><ARG_OF_PERICENTER>284.3144</ARG_OF_PERICENTER><MEAN_ANOMALY>75.7065</MEAN_ANOMALY></meanElements><tleParameters><EPHEMERIS_TYPE>0</EPHEMERIS_TYPE><CLASSIFICATION_TYPE>U</CLASSIFICATION_TYPE><NORAD_CAT_ID>64509</NORAD_CAT_ID><ELEMENT_SET_NO>999</ELEMENT_SET_NO><REV_AT_EPOCH>881</REV_AT_EPOCH><BSTAR>.88952E-3</BSTAR><MEAN_MOTION_DOT>.31319E-3</MEAN_MOTION_DOT><MEAN_MOTION_DDOT>0</MEAN_MOTION_DDOT></tleParameters></data></segment></body></omm>
<omm id="CCSDS_OMM_VERS" version="2.0">
<header><CREATION_DATE/><ORIGINATOR/></header><body><segment><metadata><OBJECT_NAME>KUIPER-00050</OBJECT_NAME><OBJECT_ID>2025-134L</OBJECT_ID><CENTER_NAME>EARTH</CENTER_NAME><REF_FRAME>TEME</REF_FRAME><TIME_SYSTEM>UTC</TIME_SYSTEM><MEAN_ELEMENT_THEORY>SGP4</MEAN_ELEMENT_THEORY></metadata><data><meanElements><EPOCH>2025-08-11T08:18:45.962784</EPOCH><MEAN_MOTION>15.35302483</MEAN_MOTION><ECCENTRICITY>.0007171</ECCENTRICITY><INCLINATION>51.8724</INCLINATION><RA_OF_ASC_NODE>95.3952</RA_OF_ASC_NODE><ARG_OF_PERICENTER>281.2942</ARG_OF_PERICENTER><MEAN_ANOMALY>78.7238</MEAN_ANOMALY></meanElements><tleParameters><EPHEMERIS_TYPE>0</EPHEMERIS_TYPE><CLASSIFICATION_TYPE>U</CLASSIFICATION_TYPE><NORAD_CAT_ID>64510</NORAD_CAT_ID><ELEMENT_SET_NO>999</ELEMENT_SET_NO><REV_AT_EPOCH>829</REV_AT_EPOCH><BSTAR>.57448E-2</BSTAR><MEAN_MOTION_DOT>.205214E-2</MEAN_MOTION_DOT><MEAN_MOTION_DDOT>0</MEAN_MOTION_DDOT></tleParameters></data></segment></body></omm>
<omm id="CCSDS_OMM_VERS" version="2.0">
<header><CREATION_DATE/><ORIGINATOR/></header><body><segment><metadata><OBJECT_NAME>KUIPER-00051</OBJECT_NAME><OBJECT_ID>2025-134M</OBJECT_ID><CENTER_NAME>EARTH</CENTER_NAME><REF_FRAME>TEME</REF_FRAME><TIME_SYSTEM>UTC</TIME_SYSTEM><MEAN_ELEMENT_THEORY>SGP4</MEAN_ELEMENT_THEORY></metadata><data><meanElements><EPOCH>2025-08-11T20:27:25.653600</EPOCH><MEAN_MOTION>15.35574298</MEAN_MOTION><ECCENTRICITY>.0004471</ECCENTRICITY><INCLINATION>51.8719</INCLINATION><RA_OF_ASC_NODE>92.7956</RA_OF_ASC_NODE><ARG_OF_PERICENTER>272.8921</ARG_OF_PERICENTER><MEAN_ANOMALY>87.1553</MEAN_ANOMALY></meanElements><tleParameters><EPHEMERIS_TYPE>0</EPHEMERIS_TYPE><CLASSIFICATION_TYPE>U</CLASSIFICATION_TYPE><NORAD_CAT_ID>64511</NORAD_CAT_ID><ELEMENT_SET_NO>999</ELEMENT_SET_NO><REV_AT_EPOCH>875</REV_AT_EPOCH><BSTAR>.13276E-2</BSTAR><MEAN_MOTION_DOT>.46529E-3</MEAN_MOTION_DOT><MEAN_MOTION_DDOT>0</MEAN_MOTION_DDOT></tleParameters></data></segment></body></omm>
<omm id="CCSDS_OMM_VERS" version="2.0">
<header><CREATION_DATE/><ORIGINATOR/></header><body><segment><metadata><OBJECT_NAME>KUIPER-00052</OBJECT_NAME><OBJECT_ID>2025-134N</OBJECT_ID><CENTER_NAME>EARTH</CENTER_NAME><REF_FRAME>TEME</REF_FRAME><TIME_SYSTEM>UTC</TIME_SYSTEM><MEAN_ELEMENT_THEORY>SGP4</MEAN_ELEMENT_THEORY></metadata><data><meanElements><EPOCH>2025-08-11T22:00:01.999584</EPOCH><MEAN_MOTION>15.54302896</MEAN_MOTION><ECCENTRICITY>.0004701</ECCENTRICITY><INCLINATION>51.8758</INCLINATION><RA_OF_ASC_NODE>90.6237</RA_OF_ASC_NODE><ARG_OF_PERICENTER>316.2129</ARG_OF_PERICENTER><MEAN_ANOMALY>236.2795</MEAN_ANOMALY></meanElements><tleParameters><EPHEMERIS_TYPE>0</EPHEMERIS_TYPE><CLASSIFICATION_TYPE>U</CLASSIFICATION_TYPE><NORAD_CAT_ID>64512</NORAD_CAT_ID><ELEMENT_SET_NO>999</ELEMENT_SET_NO><REV_AT_EPOCH>840</REV_AT_EPOCH><BSTAR>-.626E-3</BSTAR><MEAN_MOTION_DOT>-.41976E-3</MEAN_MOTION_DOT><MEAN_MOTION_DDOT>0</MEAN_MOTION_DDOT></tleParameters></data></segment></body></omm>

</ndm>
