KUIPER-00044            
1 64505U 25134F   25223.91668981 -.00694828  00000+0 -50158-1 0  9995
2 64505  51.8801  96.0157 0011996 295.2032 115.5954 15.06166981  8317
KUIPER-00046            
1 64506U 25134G   25223.85083233 -.00084762  00000+0 -44094-2 0  9993
2 64506  51.8750  94.9717 0010012 291.5153  68.4757 15.15814240  8349
KUIPER-00047            
1 64507U 25134H   25223.82891338  .00027498  00000+0  81364-3 0  9997
2 64507  51.8631  93.3292 0009665 304.2266  55.7804 15.34654937  8368
KUIPER-00048            
1 64508U 25134J   25223.37483727  .00034129  00000+0  94318-3 0  9999
2 64508  51.8751  94.8604 0002992 275.0665  84.9980 15.36720841  8762
KUIPER-00049            
1 64509U 25134K   25223.85893413  .00031319  00000+0  88952-3 0  9995
2 64509  51.8703  92.8306 0006996 284.3144  75.7065 15.35893269  8812
KUIPER-00050            
1 64510U 25134L   25223.34636531  .00205214  00000+0  57448-2 0  9999
2 64510  51.8724  95.3952 0007171 281.2942  78.7238 15.35302483  8290
KUIPER-00051            
1 64511U 25134M   25223.85238025  .00046529  00000+0  13276-2 0  9995
2 64511  51.8719  92.7956 0004471 272.8921  87.1553 15.35574298  8753
KUIPER-00052            
1 64512U 25134N   25223.91668981 -.00041976  00000+0 -62600-3 0  9990
2 64512  51.8758  90.6237 0004701 316.2129 236.2795 15.54302896  8406
